AOR-E (EGNOS/PRN 120)   
<<<<<<< .mine
1 24307U 96053A   13103.35018860 -.00000137  00000-0  00000+0 0  6659
2 24307   0.1286  59.7668 0006558 327.6545 284.8238  1.00272749 60780
=======
1 24307U 96053A   13109.23887095 -.00000130  00000-0  00000+0 0  6716
2 24307   0.1411  61.7648 0006860 340.0470 236.1866  1.00271728 60843
>>>>>>> .r6620
ARTEMIS (EGNOS/PRN 124) 
<<<<<<< .mine
1 26863U 01029A   13104.02205582  .00000110  00000-0  00000+0 0  4783
2 26863  10.5115  50.5975 0003514  10.1385 170.9964  1.00276586 44157
=======
1 26863U 01029A   13107.94145131  .00000115  00000-0  00000+0 0  4820
2 26863  10.5188  50.5491 0003246  18.6978 137.3430  1.00268152 44192
>>>>>>> .r6620
MTSAT-1R (MSAS/PRN 129) 
<<<<<<< .mine
1 28622U 05006A   13103.46246216 -.00000294  00000-0  10000-3 0  8607
2 28622   0.0336 307.2350 0000838  26.1767 174.9008  1.00270824 29758
=======
1 28622U 05006A   13109.53007600 -.00000288  00000-0  10000-3 0  8651
2 28622   0.0256 308.7831 0000542  57.1274 172.7423  1.00271476 29816
>>>>>>> .r6620
CRE (WAAS/PRN 138)      
<<<<<<< .mine
1 28868U 05036A   13102.47815699 -.00000090  00000-0  10000-3 0  1910
2 28868   0.0055 283.4231 0000539 269.9653  72.2705  1.00272506 27885
=======
1 28868U 05036A   13106.61685118 -.00000085  00000-0  10000-3 0  1948
2 28868   0.0075 310.1220 0000304 336.4415  33.1112  1.00272398 27921
>>>>>>> .r6620
CRW (WAAS/PRN 135)      
<<<<<<< .mine
1 28884U 05041A   13102.67052025  .00000064  00000-0  00000+0 0  4965
2 28884   0.0501  62.8097 0001281 333.5654 273.0301  1.00272943 27453
=======
1 28884U 05041A   13107.62266764  .00000069  00000-0  00000+0 0  4990
2 28884   0.0210  47.2060 0001325 352.7824 257.0637  1.00272930 27504
>>>>>>> .r6620
IOR-W (EGNOS/PRN 126)   
<<<<<<< .mine
1 28899U 05044A   13103.07471951  .00000121  00000-0  00000+0 0  6812
2 28899   2.2729 347.2798 0001806  45.7285 220.3739  1.00266751 27256
=======
1 28899U 05044A   13109.10709678  .00000127  00000-0  00000+0 0  6908
2 28899   2.2723 347.4711 0002655  49.7746 233.7527  1.00272488 27310
>>>>>>> .r6620
MTSAT-2 (MSAS/PRN 137)  
<<<<<<< .mine
1 28937U 06004A   13103.48438830 -.00000256  00000-0  00000+0 0  3790
2 28937   0.0241 247.7481 0003921 133.8914 139.5701  1.00274373 26231
=======
1 28937U 06004A   13109.53020559 -.00000250  00000-0  00000+0 0  3870
2 28937   0.0206  68.6753 0004252 326.7080 148.3190  1.00271498 26290
>>>>>>> .r6620
AMR (WAAS/PRN 133)      
<<<<<<< .mine
1 33278U 08039A   13103.39040922 -.00000157  00000-0  00000+0 0  1502
2 33278   3.0097 346.1662 0002767  44.5688 213.9056  1.00272221 17077
=======
1 33278U 08039A   13109.35383649 -.00000151  00000-0  00000+0 0  1571
2 33278   3.0096 346.2559 0002915  56.8727 194.2180  1.00269795 17135
>>>>>>> .r6620
QZS-1 (QZSS/PRN 183)    
<<<<<<< .mine
1 37158U 10045A   13103.40699773 -.00000204  00000-0  00000+0 0  5146
2 37158  40.6361 181.5463 0752134 270.0967  30.3841  1.00249918  9492
GSAT-8 (GAGAN/PRN 127)  
1 37605U 11022A   13104.15585705  .00000072  00000-0  10000-3 0  4383
2 37605   0.0738  84.0169 0004514 211.5684  18.0703  1.00273394  6992
LUCH 5A (SDCM/PRN 140)  
1 37951U 11074B   13103.39059355 -.00000062  00000-0  00000+0 0  3278
2 37951   3.8379 260.0831 0000648 134.6832 114.6389  1.00275370  4924
GSAT-10 (GAGAN/PRN 128) 
1 38779U 12051B   13104.08949650 -.00000178  00000-0  10000-3 0  1299
2 38779   0.0169 144.6907 0000940 213.3613 319.5596  1.00272005  2035
LUCH 5B (SDCM/PRN 125)  
1 38977U 12061A   13103.80439810 -.00000138  00000-0  00000+0 0  1292
2 38977   0.4280 111.9460 0003071 316.9585  46.9543  1.00273411  1922
=======
1 37158U 10045A   13108.39752400 -.00000189  00000-0  00000+0 0  5193
2 37158  40.6346 181.4730 0752222 270.1104  31.5274  1.00248032  9548
GSAT-8 (GAGAN/PRN 127)  
1 37605U 11022A   13109.16470403  .00000077  00000-0  10000-3 0  4427
2 37605   0.0804  85.2565 0004693 215.1349  21.3889  1.00272720  7046
LUCH 5A (SDCM/PRN 140)  
1 37951U 11074B   13109.41816778 -.00000057  00000-0  00000+0 0  3316
2 37951   3.8243 259.9714 0000906 181.5592  83.8440  1.00276792  4982
GSAT-10 (GAGAN/PRN 128) 
1 38779U 12051B   13107.56764344 -.00000174  00000-0  10000-3 0  1319
2 38779   0.0384  88.4390 0001213 284.1270 120.6092  1.00271911  2075
LUCH 5B (SDCM/PRN 125)  
1 38977U 12061A   13108.22236300 -.00000133  00000-0  00000+0 0  1321
2 38977   0.4367 111.1022 0003262 319.6253 199.9778  1.00273130  1969
>>>>>>> .r6620
